[{"OBJECT_NAME":"STARLINK-35020","OBJECT_ID":"2025-189T","EPOCH":"2026-03-09T21:45:26.269920","MEAN_MOTION":15.30208225,"ECCENTRICITY":0.00016568,"INCLINATION":53.1599,"RA_OF_ASC_NODE":205.4732,"ARG_OF_PERICENTER":51.9803,"MEAN_ANOMALY":308.1347,"EPHEMERIS_TYPE":0,"CLASSIFICATION_TYPE":"U","NORAD_CAT_ID":65340,"ELEMENT_SET_NO":999,"REV_AT_EPOCH":3109,"BSTAR":0.0013477456,"MEAN_MOTION_DOT":0.00039782,"MEAN_MOTION_DDOT":0},{"OBJECT_NAME":"FENGYUN 1C DEB","OBJECT_ID":"1999-025QK","EPOCH":"2026-03-09T09:38:35.752416","MEAN_MOTION":15.21777611,"ECCENTRICITY":0.00584989,"INCLINATION":98.8236,"RA_OF_ASC_NODE":15.4163,"ARG_OF_PERICENTER":235.7553,"MEAN_ANOMALY":123.8129,"EPHEMERIS_TYPE":0,"CLASSIFICATION_TYPE":"U","NORAD_CAT_ID":30082,"ELEMENT_SET_NO":999,"REV_AT_EPOCH":2608,"BSTAR":0.001566847,"MEAN_MOTION_DOT":0.00037313,"MEAN_MOTION_DDOT":0}]
